#cP2011  8  1  0  0  0.00000000      96 ORBIT IGS08 HLM  IGS
## 1647  86400.00000000   900.00000000 55774 0.0000000000000
+   32   G01G02G03G04G05G06G07G08G09G10G11G12G13G14G15G16G17
+        G18G19G20G21G22G23G24G25G26G27G28G29G30G31G32  0  0
+          0  0  0  0  0  0  0  0  0  0  0  0  0  0  0  0  0
+          0  0  0  0  0  0  0  0  0  0  0  0  0  0  0  0  0
+          0  0  0  0  0  0  0  0  0  0  0  0  0  0  0  0  0
++         4  2  3  2  2  3  2  2  2  2  2  2  2  2  2  2  2
++         2  2  2  2  2  2  2  2  3  2  2  2  3  2  2  0  0
++         0  0  0  0  0  0  0  0  0  0  0  0  0  0  0  0  0
++         0  0  0  0  0  0  0  0  0  0  0  0  0  0  0  0  0
++         0  0  0  0  0  0  0  0  0  0  0  0  0  0  0  0  0
%c G  cc GPS ccc cccc cccc cccc cccc ccccc ccccc ccccc ccccc
%c cc cc ccc ccc cccc cccc cccc cccc ccccc ccccc ccccc ccccc
%f  1.2500000  1.025000000  0.00000000000  0.000000000000000
%f  0.0000000  0.000000000  0.00000000000  0.000000000000000
%i    0    0    0    0      0      0      0      0         0
%i    0    0    0    0      0      0      0      0         0
/* FINAL ORBIT COMBINATION FROM WEIGHTED AVERAGE OF:        
/* cod emr esa gfz grg jpl mit ngs sio                      
/* REFERENCED TO IGS TIME (IGST) AND TO WEIGHTED MEAN POLE: 
/* PCV:IGS08_1648 OL/AL:FES2004  NONE     Y  ORB:CMB CLK:CMB
*  2011  8  1  0 45  0.00000000
PG01 -21310.873013  -7085.430668 -14703.608837     -8.746135 12 10 15 185       
PG02 -12435.764922 -21978.634253   9058.945626    349.244660 10  8  8 112       
PG03   6911.349901  14569.410237 -21547.943017    749.061169 13  9 10 158       
PG04   1567.742602 -18332.050996  18819.717872    188.384825  8  7  7 118       
PG05  -3675.855256 -22385.577450 -13736.858010   -197.448397  9  9  7 158       
PG06   1271.820850  15837.257425 -21114.132595   -109.374048 12  8  8 171       
PG07  16855.563022  -2316.268096 -20451.608638     20.143175  7  7  7 116       
PG08  10418.516396 -10003.838593 -22236.545336      8.638113  9  5  7 136       
PG09 -20938.817717 -14465.721429   7007.902576     96.312799  8  9  7 143       
PG10   8823.104716 -24782.204928   1351.070961     -8.556056  9  5  9 131       
PG11  23567.690037  12400.359391   2128.573831   -172.990509  8  8  8 136       
PG12 -13813.610075  -5671.036968  21981.517468     12.867374  9  8  7 135       
PG13  26242.276991  -4350.287978   -298.760968    258.504824  5  8  3 120       
PG14 -15238.574481  14091.608011  16650.202703    164.641929  7  4  7 143       
PG15 -20257.215853  -6479.160060 -16005.844699   -113.005055 10  6 10 156       
PG16   3174.595045  21797.562036 -14605.099489   -188.964484  7  7  6 139       
PG17  13970.530906 -15008.842422  16900.209909    180.691518  9  7  7 123       
PG18 -15944.644099  14778.974371 -14666.883318    150.028077 10  6  8 107       
PG19  17534.303050   9742.541774 -17603.099165   -168.111035  9  8  8 165       
PG20  15532.307706   2807.558846  21217.039851     51.242233  5  6  6 110       
PG21 -15786.195343   5323.492787 -20364.655705   -161.660551  8  8  6 163       
PG22 -10591.142145  23930.020796  -3992.413362    145.797915  9  5 10 111       
PG23  24835.807402   1246.052832   9840.999664    287.570364  9 10  8 140       
PG24  21005.504114  12297.525584  11032.255492    411.492925  6  8  7 141       
PG25 -16201.048846   8041.251325  19412.677887     11.799339  7  9  9 130       
PG26  -9022.590420 -13176.132466 -21887.596435   -108.948323 11 11  9 176       
PG27 -20545.242936 -16991.513505   2856.700594    290.233533  7 10  7 137       
PG28  12443.607439 -22094.051263  -6926.791277     56.106172 10  7  7 129       
PG29 -26109.226991   4666.230297    908.714657    227.738880  9  8 10 120       
PG30  -2466.840034  25951.884690  -5460.885383     31.336279 12  4 11 159       
PG31   1504.317605  19424.091922  18151.395862    119.557202  5  6  8 154       
PG32  11131.101342  12463.193891  21001.480177   -302.204797  7  7  7 124       
*  2011  8  1  1  0  0.00000000
PG01 -22284.636963  -8266.870323 -12474.279562     -8.744940 11 10 14 179       
PG02 -11427.535174 -21360.681419  11502.611105    349.245940  9  8  8  86       
PG03   4710.043958  15482.123618 -21475.844650    749.065213 12  9  9 163       
PG04   3300.426382 -16845.916757  19968.431614    188.394603  7  7  7 118       
PG05  -3095.357534 -23727.039971 -11422.877570   -197.453369  8  9  7 157       
PG06  -1050.262912  16546.299345 -20557.414374   -109.364085 11  8  7 174       
PG07  18398.749920   -661.788858 -19225.064372     20.144416  7  7  8 118       
PG08  12089.741682  -8089.216032 -22218.786584      8.638631  8  5  7 141       
PG09 -21319.502943 -15089.993988   4201.901505     96.315049  8 10  7 145       
PG10   9038.803217 -24364.626223   4179.871741     -8.556432  8  5  9 133       
PG11  23463.069415  12836.641141   -553.958351   -172.993550  8  7  8 131       
PG12 -13135.974918  -8066.116161  21661.257378     12.869688  8  8  7 121       
PG13  26129.719937  -4157.844749   2604.644261    258.502999  6  8  3 122       
PG14 -16990.165683  14328.633849  14593.091664    164.643970  7  5  7 141       
PG15 -18457.661963  -7198.202538 -17762.031653   -113.003288 10  6 10 160       
PG16   2559.328873  23232.059539 -12312.239754   -188.966449  6  7  6 139       
PG17  15767.602541 -15265.806806  14940.265989    180.690525  9  7  7 120       
PG18 -15702.856899  12914.342477 -16560.000557    150.029594 10  5  8 118       
PG19  15506.617255  10251.319895 -19119.569398   -168.114964  8  8  7 167       
PG20  15007.744194   5215.197188  21145.330364     51.242634  4  6  6 110       
PG21 -17398.750713   3593.717135 -19482.996845   -161.662382  9  8  6 164       
PG22 -10752.217531  23224.681344  -6700.897223    145.797756  9  6 10 105       
PG23  23673.789621   1750.630362  12290.296771    287.568049  8  9  7 137       
PG24  21577.701984  13273.353582   8524.555379    411.495369  6  7  8 136       
PG25 -15756.100996   5791.066141  20548.241953     11.801076  7  9  9 122       
PG26  -6674.870660 -13651.088339 -22412.659437   -108.959469 11 10  9 176       
PG27 -20499.933881 -17176.756021    -12.790604    290.234999  8 10  7 136       
PG28  12366.180382 -21055.507384  -9608.713718     56.108570 10  8  7 129       
PG29 -25915.414599   4360.561119   3754.064672    227.741735  9  8 10 120       
PG30  -2795.354128  26309.396262  -2653.042406     31.335704 11  3 11 158       
PG31    -77.806936  17996.381926  19658.241452    119.562283  6  6  8 158       
PG32  10306.611024  14596.930366  20050.244836   -302.211352  7  7  7 121       
*  2011  8  1  1 15  0.00000000
PG01 -23123.027246  -9226.778315 -10036.972401     -8.743637 10 11 14 171       
PG02 -10188.186553 -20624.736051  13753.930498    349.247721  9  7  7  91       
PG03   2577.010891  16489.259116 -21047.625670    749.069456 12  9  8 159       
PG04   5183.520149 -15372.092457  20764.594074    188.404372  7  7  6 125       
PG05  -2635.093680 -24828.027385  -8911.301042   -197.458332  8  8  7 157       
PG06  -3260.045986  17334.430845 -19640.915876   -109.354188 11  8  5 173       
PG07  19911.032108    800.366833 -17669.865599     20.145939  8  6  8 109       
PG08  13848.395072  -6295.374879 -21818.582423      8.638544  8  5  6 148       
PG09 -21486.793098 -15480.064605   1322.662827     96.316362  7 10  7 140       
PG10   9208.034405 -23645.785244   6934.740526     -8.556748  8  5  8 132       
PG11  23112.320154  13141.564896  -3227.187022   -172.996661  8  7  8 137       
PG12 -12602.445088 -10436.956517  20969.368781     12.871795  7  8  7 121       
PG13  25711.723336  -3876.988229   5463.334169    258.501180  6  9  3 114       
PG14 -18489.934655  14594.886302  12285.648047    164.645783  7  6  7 138       
PG15 -16525.783237  -8070.094031 -19214.199393   -113.001546  9  6  9 158       
PG16   2083.367917  24431.379141  -9804.044301   -188.968347  6  6  6 136       
PG17  17325.203373 -15545.576418  12722.911679    180.689599  9  6  7 117       
PG18 -15506.031854  10845.229508 -18157.003594    150.031417  9  4  9 102       
PG19  13358.025624  10904.147993 -20310.932944   -168.118628  8  8  6 167       
PG20  14601.922421   7615.445324  20705.185971     51.243119  3  6  6 113       
PG21 -18996.468885   2027.055381 -18258.657185   -161.664638  9  8  7 164       
PG22 -10883.556695  22233.506845  -9292.665079    145.797495 10  7  9 110       
PG23  22289.343923   2400.501320  14532.089908    287.565342  7  9  7 133       
PG24  21990.910845  14017.094657   5872.891450    411.500016  6  7  8 137       
PG25 -15410.805774   3413.784902  21329.162009     11.802796  7  9  9 112       
PG26  -4319.375242 -14271.918232 -22573.734599   -108.970731 11 10  9 174       
PG27 -20208.432020 -17168.066453  -2882.001013    290.239215  7 10  7 135       
PG28  12276.992148 -19720.419954 -12119.131960     56.111098 10  8  6 119       
PG29 -25432.628654   3953.916934   6534.709945    227.744094  9  7  9 115       
PG30  -3060.555569  26367.252994    200.269923     31.339172 11  2 11 159       
PG31  -1847.233799  16559.486761  20830.296543    119.567223  6  7  7 156       
PG32   9629.798372  16648.898559  18765.278714   -302.218002  7  7  7 121       
EOF
